H1 CPF  1  DGF 2022 09 05 10  7481 larets     NONE      
H2   304206 5557    27944 2022 09 05 00 00 00 2022 09 12 00 00 00    30 1 1  0 0 0
H5  0.0650
H9
10 0 59830  75600.000000  0       1729302.116       4279763.721       5326295.150
10 0 59830  75630.000000  0       1720701.958       4100953.139       5467711.621
10 0 59830  75660.000000  0       1709560.469       3918014.835       5603526.235
10 0 59830  75690.000000  0       1695871.621       3731146.598       5733600.717
10 0 59830  75720.000000  0       1679632.850       3540550.189       5857802.730
10 0 59830  75750.000000  0       1660845.078       3346431.112       5976006.004
10 0 59830  75780.000000  0       1639512.719       3148998.389       6088090.463
10 0 59830  75810.000000  0       1615643.692       2948464.320       6193942.338
10 0 59830  75840.000000  0       1589249.417       2745044.258       6293454.284
10 0 59830  75870.000000  0       1560344.825       2538956.362       6386525.475
10 0 59830  75900.000000  0       1528948.342       2330421.359       6473061.709
10 0 59830  75930.000000  0       1495081.890       2119662.306       6552975.492
10 0 59830  75960.000000  0       1458770.862       1906904.336       6626186.125
10 0 59830  75990.000000  0       1420044.110       1692374.421       6692619.770
10 0 59830  76020.000000  0       1378933.917       1476301.123       6752209.525
10 0 59830  76050.000000  0       1335475.973       1258914.346       6804895.477
10 0 59830  76080.000000  0       1289709.339       1040445.098       6850624.762
10 0 59830  76110.000000  0       1241676.417        821125.237       6889351.605
10 0 59830  76140.000000  0       1191422.904        601187.232       6921037.370
10 0 59830  76170.000000  0       1138997.750        380863.916       6945650.591
10 0 59830  76200.000000  0       1084453.111        160388.235       6963167.008
10 0 59830  76230.000000  0       1027844.291        -60006.996       6973569.586
10 0 59830  76260.000000  0        969229.688       -280089.348       6976848.530
10 0 59830  76290.000000  0        908670.729       -499627.025       6973001.290
10 0 59830  76320.000000  0        846231.809       -718389.105       6962032.555
10 0 59830  76350.000000  0        781980.219       -936145.784       6943954.251
10 0 59830  76380.000000  0        715986.072      -1152668.615       6918785.523
10 0 59830  76410.000000  0        648322.225      -1367730.753       6886552.716
10 0 59830  76440.000000  0        579064.199      -1581107.194       6847289.348
10 0 59830  76470.000000  0        508290.093      -1792575.002       6801036.069
10 0 59830  76500.000000  0        436080.498      -2001913.553       6747840.628
10 0 59830  76530.000000  0        362518.402      -2208904.762       6687757.820
10 0 59830  76560.000000  0        287689.097      -2413333.317       6620849.430
10 0 59830  76590.000000  0        211680.075      -2614986.905       6547184.164
10 0 59830  76620.000000  0        134580.936      -2813656.429       6466837.574
10 0 59830  76650.000000  0         56483.278      -3009136.224       6379891.982
10 0 59830  76680.000000  0        -22519.403      -3201224.264       6286436.401
10 0 59830  76710.000000  0       -102331.831      -3389722.377       6186566.445
10 0 59830  76740.000000  0       -182857.055      -3574436.450       6080384.234
10 0 59830  76770.000000  0       -263996.567      -3755176.625       5967998.290
10 0 59830  76800.000000  0       -345650.421      -3931757.498       5849523.433
10 0 59830  76830.000000  0       -427717.345      -4103998.310       5725080.671
10 0 59830  76860.000000  0       -510094.871      -4271723.135       5594797.081
10 0 59830  76890.000000  0       -592679.453      -4434761.065       5458805.687
10 0 59830  76920.000000  0       -675366.602      -4592946.396       5317245.329
10 0 59830  76950.000000  0       -758051.012      -4746118.795       5170260.522
10 0 59830  76980.000000  0       -840626.691      -4894123.476       5018001.319
10 0 59830  77010.000000  0       -922987.097      -5036811.361       4860623.147
10 0 59830  77040.000000  0      -1005025.269      -5174039.237       4698286.661
10 0 59830  77070.000000  0      -1086633.963      -5305669.902       4531157.569
10 0 59830  77100.000000  0      -1167705.788      -5431572.312       4359406.473
10 0 59830  77130.000000  0      -1248133.342      -5551621.717       4183208.689
10 0 59830  77160.000000  0      -1327809.351      -5665699.782       4002744.067
10 0 59830  77190.000000  0      -1406626.807      -5773694.717       3818196.811
10 0 59830  77220.000000  0      -1484479.106      -5875501.387       3629755.290
10 0 59830  77250.000000  0      -1561260.186      -5971021.416       3437611.844
10 0 59830  77280.000000  0      -1636864.668      -6060163.293       3241962.586
10 0 59830  77310.000000  0      -1711187.992      -6142842.458       3043007.208
10 0 59830  77340.000000  0      -1784126.559      -6218981.390       2840948.768
10 0 59830  77370.000000  0      -1855577.867      -6288509.687       2635993.486
10 0 59830  77400.000000  0      -1925440.650      -6351364.129       2428350.527
10 0 59830  77430.000000  0      -1993615.015      -6407488.740       2218231.783
10 0 59830  77460.000000  0      -2060002.576      -6456834.840       2005851.652
10 0 59830  77490.000000  0      -2124506.581      -6499361.084       1791426.817
10 0 59830  77520.000000  0      -2187032.050      -6535033.498       1575176.018
10 0 59830  77550.000000  0      -2247485.898      -6563825.510       1357319.830
10 0 59830  77580.000000  0      -2305777.067      -6585717.963       1138080.427
10 0 59830  77610.000000  0      -2361816.651      -6600699.124        917681.354
10 0 59830  77640.000000  0      -2415518.015      -6608764.690        696347.294
10 0 59830  77670.000000  0      -2466796.917      -6609917.774        474303.831
10 0 59830  77700.000000  0      -2515571.629      -6604168.890        251777.220
10 0 59830  77730.000000  0      -2561763.044      -6591535.932         28994.149
10 0 59830  77760.000000  0      -2605294.796      -6572044.135       -193818.499
10 0 59830  77790.000000  0      -2646093.362      -6545726.037       -416433.876
10 0 59830  77820.000000  0      -2684088.170      -6512621.428       -638625.411
10 0 59830  77850.000000  0      -2719211.704      -6472777.293       -860167.039
10 0 59830  77880.000000  0      -2751399.595      -6426247.740      -1080833.438
10 0 59830  77910.000000  0      -2780590.722      -6373093.933      -1300400.262
10 0 59830  77940.000000  0      -2806727.300      -6313384.003      -1518644.371
10 0 59830  77970.000000  0      -2829754.969      -6247192.963      -1735344.062
10 0 59830  78000.000000  0      -2849622.872      -6174602.606      -1950279.294
10 0 59830  78030.000000  0      -2866283.739      -6095701.403      -2163231.918
10 0 59830  78060.000000  0      -2879693.956      -6010584.390      -2373985.899
10 0 59830  78090.000000  0      -2889813.638      -5919353.044      -2582327.536
10 0 59830  78120.000000  0      -2896606.692      -5822115.159      -2788045.679
10 0 59830  78150.000000  0      -2900040.875      -5718984.709      -2990931.942
10 0 59830  78180.000000  0      -2900087.852      -5610081.711      -3190780.916
10 0 59830  78210.000000  0      -2896723.246      -5495532.073      -3387390.371
10 0 59830  78240.000000  0      -2889926.682      -5375467.447      -3580561.459
10 0 59830  78270.000000  0      -2879681.828      -5250025.065      -3770098.909
10 0 59830  78300.000000  0      -2865976.433      -5119347.582      -3955811.223
10 0 59830  78330.000000  0      -2848802.356      -4983582.903      -4137510.862
10 0 59830  78360.000000  0      -2828155.594      -4842884.013      -4315014.429
10 0 59830  78390.000000  0      -2804036.304      -4697408.798      -4488142.852
10 0 59830  78420.000000  0      -2776448.817      -4547319.865      -4656721.551
10 0 59830  78450.000000  0      -2745401.654      -4392784.350      -4820580.616
10 0 59830  78480.000000  0      -2710907.532      -4233973.735      -4979554.961
10 0 59830  78510.000000  0      -2672983.364      -4071063.650      -5133484.490
10 0 59830  78540.000000  0      -2631650.261      -3904233.675      -5282214.248
10 0 59830  78570.000000  0      -2586933.522      -3733667.144      -5425594.570
10 0 59830  78600.000000  0      -2538862.625      -3559550.936      -5563481.219
10 0 59830  78630.000000  0      -2487471.206      -3382075.270      -5695735.529
10 0 59830  78660.000000  0      -2432797.041      -3201433.496      -5822224.534
10 0 59830  78690.000000  0      -2374882.017      -3017821.886      -5942821.090
10 0 59830  78720.000000  0      -2313772.102      -2831439.415      -6057403.999
10 0 59830  78750.000000  0      -2249517.306      -2642487.551      -6165858.120
10 0 59830  78780.000000  0      -2182171.641      -2451170.032      -6268074.477
10 0 59830  78810.000000  0      -2111793.077      -2257692.652      -6363950.357
10 0 59830  78840.000000  0      -2038443.486      -2062263.038      -6453389.407
10 0 59830  78870.000000  0      -1962188.598      -1865090.434      -6536301.719
10 0 59830  78900.000000  0      -1883097.934      -1666385.478      -6612603.914
10 0 59830  78930.000000  0      -1801244.749      -1466359.978      -6682219.218
10 0 59830  78960.000000  0      -1716705.963      -1265226.697      -6745077.534
10 0 59830  78990.000000  0      -1629562.091      -1063199.124      -6801115.502
10 0 59830  79020.000000  0      -1539897.169       -860491.255      -6850276.560
10 0 59830  79050.000000  0      -1447798.673       -657317.377      -6892510.992
10 0 59830  79080.000000  0      -1353357.440       -453891.840      -6927775.979
10 0 59830  79110.000000  0      -1256667.579       -250428.843      -6956035.635
10 0 59830  79140.000000  0      -1157826.379        -47142.214      -6977261.047
10 0 59830  79170.000000  0      -1056934.211        155754.808      -6991430.300
99
